ONEWEB-0415             
1 51624U 22012C   25111.51627430 -.00000640  00000+0 -18687-2 0  9996
2 51624  87.8787 120.3433 0001690  97.9463 262.1857 13.10374982154060
ONEWEB-0416             
1 51625U 22012D   25111.45155249 -.00000037  00000+0 -14306-3 0  9999
2 51625  87.8801 120.3685 0002014  92.4618 267.6740 13.10375561154098
ONEWEB-0422             
1 51626U 22012E   25111.85760279  .00000049  00000+0  93055-4 0  9999
2 51626  87.9024  89.7514 0001800  63.4675 296.6640 13.17647540159608
ONEWEB-0423             
1 51627U 22012F   25111.47117574  .00000091  00000+0  20072-3 0  9997
2 51627  87.9019  89.8352 0002016  83.9651 276.1711 13.17649370158160
ONEWEB-0425             
1 51628U 22012G   25111.46152238  .00000494  00000+0  13792-2 0  9990
2 51628  87.8795 120.3394 0002363  90.2464 269.8935 13.10375549154098
ONEWEB-0428             
1 51629U 22012H   25111.51794183 -.00000531  00000+0 -15586-2 0  9995
2 51629  87.8800 120.3487 0001822  87.0303 273.1033 13.10374354154061
ONEWEB-0431             
1 51630U 22012J   25111.48793354  .00000263  00000+0  71746-3 0  9993
2 51630  87.8782 120.3311 0001384  91.8382 268.2904 13.10369209154112
ONEWEB-0434             
1 51631U 22012K   25111.46484365  .00000589  00000+0  16515-2 0  9994
2 51631  87.8796 120.3719 0002689  90.2042 269.9394 13.10374891154096
